NORAD_CAT_ID,OBJECT_NAME,OBJECT_TYPE,EPOCH,MEAN_MOTION,ECCENTRICITY,INCLINATION,RA_OF_ASC_NODE,ARG_OF_PERICENTER,MEAN_ANOMALY,BSTAR,MEAN_MOTION_DOT,MEAN_MOTION_DDOT,TLE_LINE0,TLE_LINE1,TLE_LINE2,SEMIMAJOR_AXIS,PERIOD,APOGEE,PERIGEE,DECAYED
55283.0,STARLINK-5317,PAYLOAD,2023-03-13 14:00:01,15.48046973,0.0003737,70.0008,280.2957,257.1049,56.8252,-0.023021,-0.0109458,0.0,0 STARLINK-5317,1 55283U 23010Q   23072.58334491 -.01094580  00000-0 -23021-1 0  9998,2 55283  70.0008 280.2957 0003737 257.1049  56.8252 15.48046973  8824,6800.577,93.02,424.983,419.9,0.0
55283.0,STARLINK-5317,PAYLOAD,2023-03-13 22:00:00,15.47239601,0.0003698,70.0006,279.3894,269.176,101.3772,-0.022181,-0.01031384,0.0,0 STARLINK-5317,1 55283U 23010Q   23072.91667824 -.01031384  00000-0 -22181-1 0  9993,2 55283  70.0006 279.3894 0003698 269.1760 101.3772 15.47239601  1300,6802.942,93.069,427.323,422.292,0.0
55283.0,STARLINK-5317,PAYLOAD,2023-03-14 14:00:01,15.45759705,0.0003536,70.0008,277.5795,267.9265,213.0809,-0.024764,-0.01088079,0.0,0 STARLINK-5317,1 55283U 23010Q   23073.58334491 -.01088079  00000-0 -24764-1 0  9990,2 55283  70.0008 277.5795 0003536 267.9265 213.0809 15.45759705  1301,6807.284,93.158,431.556,426.742,0.0
55283.0,STARLINK-5317,PAYLOAD,2023-03-14 22:00:00,15.44949377,0.0003448,70.0007,276.6761,274.2011,260.6925,-0.023716,-0.01019913,0.0,0 STARLINK-5317,1 55283U 23010Q   23073.91667824 -.01019913  00000-0 -23716-1 0  9993,2 55283  70.0007 276.6761 0003448 274.2011 260.6925 15.44949377  9035,6809.664,93.207,433.877,429.181,0.0
55283.0,STARLINK-5317,PAYLOAD,2023-03-15 14:00:01,15.43483434,0.0003581,70.0007,274.8728,265.2639,14.603,-0.02711,-0.01116519,0.0,0 STARLINK-5317,1 55283U 23010Q   23074.58334491 -.01116519  00000-0 -27110-1 0  9990,2 55283  70.0007 274.8728 0003581 265.2639  14.6030 15.43483434  1304,6813.975,93.295,438.28,433.4,0.0
55283.0,STARLINK-5317,PAYLOAD,2023-03-15 22:00:00,15.42662768,0.0003567,70.0006,273.9726,274.0471,56.9691,-0.025299,-0.01007842,0.0,0 STARLINK-5317,1 55283U 23010Q   23074.91667824 -.01007842  00000-0 -25299-1 0  9990,2 55283  70.0006 273.9726 0003567 274.0471  56.9691 15.42662768  1307,6816.391,93.345,440.688,435.825,0.0
55283.0,STARLINK-5317,PAYLOAD,2023-03-16 06:00:00,15.41923408,0.0003483,70.0003,273.0736,273.016,108.2154,-0.027404,-0.01059643,0.0,0 STARLINK-5317,1 55283U 23010Q   23075.25001157 -.01059643  00000-0 -27404-1 0  9995,2 55283  70.0003 273.0736 0003483 273.0160 108.2154 15.41923408  9232,6818.57,93.39,442.81,438.06,0.0
55283.0,STARLINK-5317,PAYLOAD,2023-03-16 14:00:01,15.41207236,0.0003523,70.0004,272.1758,271.1066,159.4075,-0.029711,-0.01132056,0.0,0 STARLINK-5317,1 55283U 23010Q   23075.58334491 -.01132056  00000-0 -29711-1 0  9994,2 55283  70.0004 272.1758 0003523 271.1066 159.4075 15.41207236  1300,6820.682,93.433,444.95,440.144,0.0
55283.0,STARLINK-5317,PAYLOAD,2023-03-16 22:00:00,15.40386371,0.0003363,70.0002,271.2788,276.2683,202.6544,-0.02757,-0.01016846,0.0,0 STARLINK-5317,1 55283U 23010Q   23075.91667824 -.01016846  00000-0 -27570-1 0  9999,2 55283  70.0002 271.2788 0003363 276.2683 202.6544 15.40386371  1303,6823.105,93.483,447.265,442.676,0.0
55283.0,STARLINK-5317,PAYLOAD,2023-03-17 08:00:01,15.39418265,0.0003348,70.0001,270.1588,265.835,2.3,-0.0277,-0.00991793,0.0,0 STARLINK-5317,1 55283U 23010Q   23076.33334491 -.00991793  00000-0 -27700-1 0  9994,2 55283  70.0001 270.1588 0003348 265.8350   2.3000 15.39418265  9403,6825.965,93.542,450.116,445.545,0.0
55283.0,STARLINK-5317,PAYLOAD,2023-03-17 14:00:01,15.38920201,0.0003282,70.0002,269.4879,267.0963,305.8532,-0.031826,-0.01124784,0.0,0 STARLINK-5317,1 55283U 23010Q   23076.58334491 -.01124784  00000-0 -31826-1 0  9994,2 55283  70.0002 269.4879 0003282 267.0963 305.8532 15.38920201  1308,6827.438,93.572,451.544,447.062,0.0
55283.0,STARLINK-5317,PAYLOAD,2023-03-17 22:00:00,15.38108785,0.0003318,70.0,268.5937,273.2624,345.3548,-0.030009,-0.01039846,0.0,0 STARLINK-5317,1 55283U 23010Q   23076.91667824 -.01039846  00000-0 -30009-1 0  9996,2 55283  70.0000 268.5937 0003318 273.2624 345.3548 15.38108785  9493,6829.839,93.621,453.97,449.438,0.0
55283.0,STARLINK-5317,PAYLOAD,2023-03-18 14:00:01,15.36637933,0.0003427,69.9998,266.8088,267.5758,79.5935,-0.034328,-0.01126122,0.0,0 STARLINK-5317,1 55283U 23010Q   23077.58334491 -.01126122  00000-0 -34328-1 0  9993,2 55283  69.9998 266.8088 0003427 267.5758  79.5935 15.36637933  9596,6834.197,93.711,458.404,453.72,0.0
55283.0,STARLINK-5317,PAYLOAD,2023-03-18 22:00:00,15.35829029,0.0003428,69.9996,265.9177,275.6554,114.4434,-0.032484,-0.01045014,0.0,0 STARLINK-5317,1 55283U 23010Q   23077.91667824 -.01045014  00000-0 -32484-1 0  9990,2 55283  69.9996 265.9177 0003428 275.6554 114.4434 15.35829029  1300,6836.596,93.76,460.805,456.118,0.0
55283.0,STARLINK-5317,PAYLOAD,2023-03-19 06:00:02,15.35055052,0.0003223,69.9993,265.0278,270.4417,161.7306,-0.032975,-0.01035518,0.0,0 STARLINK-5317,1 55283U 23010Q   23078.25002315 -.01035518  00000-0 -32975-1 0  9999,2 55283  69.9993 265.0278 0003223 270.4417 161.7306 15.35055052  9706,6838.894,93.808,462.963,458.555,0.0
55283.0,STARLINK-5317,PAYLOAD,2023-03-19 14:00:01,15.34351448,0.0003276,69.9994,264.1389,270.9047,202.2733,-0.036903,-0.01124913,0.0,0 STARLINK-5317,1 55283U 23010Q   23078.58334491 -.01124913  00000-0 -36903-1 0  9991,2 55283  69.9994 264.1389 0003276 270.9047 202.2733 15.34351448  1302,6840.985,93.851,465.091,460.608,0.0
55283.0,STARLINK-5317,PAYLOAD,2023-03-19 22:00:00,15.33547562,0.000314,69.9994,263.2509,278.4856,234.8796,-0.035,-0.01046597,0.0,0 STARLINK-5317,1 55283U 23010Q   23078.91667824 -.01046597  00000-0 -35000-1 0  9995,2 55283  69.9994 263.2509 0003140 278.4856 234.8796 15.33547562  9803,6843.375,93.9,467.389,463.091,0.0
55283.0,STARLINK-5317,PAYLOAD,2023-03-20 14:00:01,15.32064122,0.0003216,69.9993,261.4785,269.4173,321.5549,-0.039452,-0.01119116,0.0,0 STARLINK-5317,1 55283U 23010Q   23079.58334491 -.01119116  00000-0 -39452-1 0  9993,2 55283  69.9993 261.4785 0003216 269.4173 321.5549 15.32064122  1306,6847.792,93.991,471.859,467.455,0.0
55283.0,STARLINK-5317,PAYLOAD,2023-03-20 16:00:00,15.31846705,0.0003388,69.9993,261.2571,270.9653,59.4644,-0.038371,-0.01084198,0.0,0 STARLINK-5317,1 55283U 23010Q   23079.66667824 -.01084198  00000-0 -38371-1 0  9991,2 55283  69.9993 261.2571 0003388 270.9653  59.4644 15.31846705  9919,6848.44,94.004,472.625,467.984,0.0
55283.0,STARLINK-5317,PAYLOAD,2023-03-20 22:00:01,15.31270442,0.0003208,69.9991,260.5936,273.8197,354.6614,-0.037954,-0.01055647,0.0,0 STARLINK-5317,1 55283U 23010Q   23079.91668981 -.01055647  00000-0 -37954-1 0  9997,2 55283  69.9991 260.5936 0003208 273.8197 354.6614 15.31270442  1301,6850.158,94.04,474.22,469.825,0.0
55283.0,STARLINK-5317,PAYLOAD,2023-03-21 14:00:01,15.29780321,0.0003382,69.9993,258.8272,265.7899,74.8248,-0.042331,-0.01118304,0.0,0 STARLINK-5317,1 55283U 23010Q   23080.58335648 -.01118304  00000-0 -42331-1 0  9998,2 55283  69.9993 258.8272 0003382 265.7899  74.8248 15.29780321  1301,6854.605,94.131,478.789,474.152,0.0
55283.0,STARLINK-5317,PAYLOAD,2023-03-21 22:00:00,15.28988727,0.0003299,69.999,257.9456,273.4639,101.7933,-0.04084,-0.01058061,0.0,0 STARLINK-5317,1 55283U 23010Q   23080.91667824 -.01058061  00000-0 -40840-1 0  9995,2 55283  69.9990 257.9456 0003299 273.4639 101.7933 15.28988727 10105,6856.971,94.18,481.098,476.574,0.0
55283.0,STARLINK-5317,PAYLOAD,2023-03-22 00:00:00,15.28815396,0.0003156,69.9989,257.7253,275.1531,198.6321,-0.042391,-0.01089521,0.0,0 STARLINK-5317,1 55283U 23010Q   23081.00001157 -.01089521  00000-0 -42391-1 0  9995,2 55283  69.9989 257.7253 0003156 275.1531 198.6321 15.28815396  1307,6857.489,94.191,481.519,477.19,0.0
55283.0,STARLINK-5317,PAYLOAD,2023-03-22 14:00:01,15.27495201,0.0003345,69.9996,256.1855,269.3574,172.5583,-0.045303,-0.01115776,0.0,0 STARLINK-5317,1 55283U 23010Q   23081.58334491 -.01115776  00000-0 -45303-1 0  9996,2 55283  69.9996 256.1855 0003345 269.3574 172.5583 15.27495201 10217,6861.44,94.272,485.6,481.01,0.0
55283.0,STARLINK-5317,PAYLOAD,2023-03-22 22:00:00,15.26700892,0.0003145,69.9994,255.3068,276.0363,197.8486,-0.043512,-0.01051565,0.0,0 STARLINK-5317,1 55283U 23010Q   23081.91667824 -.01051565  00000-0 -43512-1 0  9997,2 55283  69.9994 255.3068 0003145 276.0363 197.8486 15.26700892  1307,6863.82,94.321,487.843,483.526,0.0
55283.0,STARLINK-5317,PAYLOAD,2023-03-23 06:00:00,15.25911044,0.0003121,69.9997,254.4291,270.5833,234.3628,-0.042497,-0.01006476,0.0,0 STARLINK-5317,1 55283U 23010Q   23082.25001157 -.01006476  00000-0 -42497-1 0  9998,2 55283  69.9997 254.4291 0003121 270.5833 234.3628 15.25911044 10311,6866.188,94.37,490.196,485.91,0.0
55283.0,STARLINK-5317,PAYLOAD,2023-03-23 14:00:01,15.25206046,0.000317,70.0001,253.5528,269.2099,265.9221,-0.048133,-0.01106703,0.0,0 STARLINK-5317,1 55283U 23010Q   23082.58335648 -.01106703  00000-0 -48133-1 0  9996,2 55283  70.0001 253.5528 0003170 269.2099 265.9221 15.25206046  1303,6868.304,94.413,492.346,487.992,0.0
55283.0,STARLINK-5317,PAYLOAD,2023-03-24 18:00:00,15.22502791,0.0003256,70.0003,250.4931,274.8759,178.4964,-0.048656,-0.01037862,0.0,0 STARLINK-5317,1 55283U 23010Q   23083.75001157 -.01037862  00000-0 -48656-1 0  9990,2 55283  70.0003 250.4931 0003256 274.8759 178.4964 15.22502791 10540,6876.431,94.581,500.535,496.057,0.0
55283.0,STARLINK-5317,PAYLOAD,2023-03-24 22:00:01,15.22138188,0.000322,70.0003,250.0566,273.3335,13.2253,-0.050208,-0.01057697,0.0,0 STARLINK-5317,1 55283U 23010Q   23083.91668981 -.01057697  00000-0 -50208-1 0  9996,2 55283  70.0003 250.0566 0003220 273.3335  13.2253 15.22138188  1301,6877.529,94.604,501.609,497.18,0.0
55283.0,STARLINK-5317,PAYLOAD,2023-03-25 06:00:00,15.21344965,0.0003233,70.0003,249.1853,268.1534,43.926,-0.048549,-0.01003617,0.0,0 STARLINK-5317,1 55283U 23010Q   23084.25001157 -.01003617  00000-0 -48549-1 0  9998,2 55283  70.0003 249.1853 0003233 268.1534  43.9260 15.21344965 10619,6879.92,94.653,504.009,499.56,0.0
